NORAD_CAT_ID,OBJECT_NAME,OBJECT_TYPE,EPOCH,MEAN_MOTION,ECCENTRICITY,INCLINATION,RA_OF_ASC_NODE,ARG_OF_PERICENTER,MEAN_ANOMALY,BSTAR,MEAN_MOTION_DOT,MEAN_MOTION_DDOT,TLE_LINE0,TLE_LINE1,TLE_LINE2,SEMIMAJOR_AXIS,PERIOD,APOGEE,PERIGEE,DECAYED
53390.0,STARLINK-4517,PAYLOAD,2023-08-20 17:19:34,15.0885079,7e-05,53.2186,347.8869,125.6227,234.483,7.6057e-05,9.23e-06,0.0,0 STARLINK-4517,1 53390U 22097C   23232.72193039  .00000923  00000-0  76057-4 0  9999,2 53390  53.2186 347.8869 0000700 125.6227 234.4830 15.08850790 57328,6917.847,95.437,540.197,539.228,0.0
53390.0,STARLINK-4517,PAYLOAD,2023-08-21 01:16:31,15.08837618,9.78e-05,53.219,346.4029,68.4996,291.61,6.0571e-05,6.76e-06,0.0,0 STARLINK-4517,1 53390U 22097C   23233.05314055  .00000676  00000-0  60571-4 0  9998,2 53390  53.2190 346.4029 0000978  68.4996 291.6100 15.08837618 57374,6917.888,95.438,540.429,539.076,0.0
53390.0,STARLINK-4517,PAYLOAD,2023-08-22 10:39:37,15.08842347,7.99e-05,53.219,340.1578,105.4524,254.6557,2.1764e-05,5.9e-07,0.0,0 STARLINK-4517,1 53390U 22097C   23234.44418079  .00000059  00000-0  21764-4 0  9999,2 53390  53.2190 340.1578 0000799 105.4524 254.6557 15.08842347 57587,6917.873,95.437,540.291,539.185,0.0
53390.0,STARLINK-4517,PAYLOAD,2023-08-22 18:36:32,15.08850325,8.25e-05,53.219,338.6702,101.1098,258.9987,9.1947e-05,1.176e-05,0.0,0 STARLINK-4517,1 53390U 22097C   23234.77537325  .00001176  00000-0  91947-4 0  9992,2 53390  53.2190 338.6702 0000825 101.1098 258.9987 15.08850325 57632,6917.849,95.437,540.285,539.143,0.0
53390.0,STARLINK-4517,PAYLOAD,2023-08-23 12:05:47,15.08841358,9.92e-05,53.2191,335.401,77.9344,282.1759,0.00012124,1.642e-05,0.0,0 STARLINK-4517,1 53390U 22097C   23235.50402103  .00001642  00000-0  12124-3 0  9996,2 53390  53.2191 335.4010 0000992  77.9344 282.1759 15.08841358 57743,6917.876,95.437,540.427,539.055,0.0
53390.0,STARLINK-4517,PAYLOAD,2023-08-24 15:07:20,15.08847883,9.55e-05,53.2175,330.346,71.5278,288.5818,7.0951e-05,8.42e-06,0.0,0 STARLINK-4517,1 53390U 22097C   23236.63009622  .00000842  00000-0  70951-4 0  9994,2 53390  53.2175 330.3460 0000955  71.5278 288.5818 15.08847883 57917,6917.856,95.437,540.382,539.061,0.0
53390.0,STARLINK-4517,PAYLOAD,2023-08-25 10:11:58,15.08840789,0.0001064,53.2185,326.777,98.6164,261.4948,-5.7702e-06,-3.8e-06,0.0,0 STARLINK-4517,1 53390U 22097C   23237.42497950 -.00000380  00000-0 -57702-5 0  9996,2 53390  53.2185 326.7770 0001064  98.6164 261.4948 15.08840789 58033,6917.878,95.438,540.479,539.007,0.0
53390.0,STARLINK-4517,PAYLOAD,2023-08-25 13:22:44,15.08845317,0.0001268,53.2179,326.1787,58.8963,301.2154,6.2812e-05,7.12e-06,0.0,0 STARLINK-4517,1 53390U 22097C   23237.55745808  .00000712  00000-0  62812-4 0  9992,2 53390  53.2179 326.1787 0001268  58.8963 301.2154 15.08845317 58853,6917.864,95.437,540.606,538.852,0.0
53390.0,STARLINK-4517,PAYLOAD,2023-08-25 18:08:53,15.08851398,0.0001073,53.2176,325.2865,96.1838,263.9276,0.0001369,1.892e-05,0.0,0 STARLINK-4517,1 53390U 22097C   23237.75617258  .00001892  00000-0  13690-3 0  9990,2 53390  53.2176 325.2865 0001073  96.1838 263.9276 15.08851398 58087,6917.846,95.437,540.453,538.968,0.0
53390.0,STARLINK-4517,PAYLOAD,2023-08-26 10:02:45,15.08833638,0.0001056,53.2169,322.3166,77.2941,282.817,-6.2578e-05,-1.283e-05,0.0,0 STARLINK-4517,1 53390U 22097C   23238.41858496 -.00001283  00000-0 -62578-4 0  9991,2 53390  53.2169 322.3166 0001056  77.2941 282.8170 15.08833638 58188,6917.9,95.438,540.495,539.034,0.0
53390.0,STARLINK-4517,PAYLOAD,2023-08-26 11:38:08,15.08834744,0.000102,53.2172,322.0194,75.597,284.5135,-4.3561e-05,-9.81e-06,0.0,0 STARLINK-4517,1 53390U 22097C   23238.48482440 -.00000981  00000-0 -43561-4 0  9995,2 53390  53.2172 322.0194 0001020  75.5970 284.5135 15.08834744 58992,6917.896,95.438,540.467,539.056,0.0
53390.0,STARLINK-4517,PAYLOAD,2023-08-26 14:48:54,15.08841257,0.0001047,53.2175,321.4243,83.9542,276.1569,6.1294e-05,6.88e-06,0.0,0 STARLINK-4517,1 53390U 22097C   23238.61730188  .00000688  00000-0  61294-4 0  9990,2 53390  53.2175 321.4243 0001047  83.9542 276.1569 15.08841257 58210,6917.877,95.437,540.466,539.017,0.0
53390.0,STARLINK-4517,PAYLOAD,2023-08-27 09:53:32,15.08841501,0.0001107,53.217,317.8551,96.7019,263.4099,5.5078e-05,5.89e-06,0.0,0 STARLINK-4517,1 53390U 22097C   23239.41218449  .00000589  00000-0  55078-4 0  9993,2 53390  53.2170 317.8551 0001107  96.7019 263.4099 15.08841501 59135,6917.876,95.437,540.507,538.975,0.0
53390.0,STARLINK-4517,PAYLOAD,2023-08-27 14:39:41,15.0884759,0.0001001,53.2165,316.9629,88.0073,272.1033,0.00018022,2.582e-05,0.0,0 STARLINK-4517,1 53390U 22097C   23239.61090213  .00002582  00000-0  18022-3 0  9994,2 53390  53.2165 316.9629 0001001  88.0073 272.1033 15.08847590 59164,6917.857,95.437,540.415,539.03,0.0
53390.0,STARLINK-4517,PAYLOAD,2023-08-28 11:19:43,15.08838078,0.0001015,53.217,313.0984,85.0816,275.0292,0.00014712,2.054e-05,0.0,0 STARLINK-4517,1 53390U 22097C   23240.47203019  .00002054  00000-0  14712-3 0  9996,2 53390  53.2170 313.0984 0001015  85.0816 275.0292 15.08838078 58494,6917.886,95.438,540.453,539.049,0.0
53390.0,STARLINK-4517,PAYLOAD,2023-08-28 14:30:29,15.08845156,0.0001039,53.2166,312.5029,78.6494,281.4615,0.0002109,3.071e-05,0.0,0 STARLINK-4517,1 53390U 22097C   23240.60450599  .00003071  00000-0  21090-3 0  9995,2 53390  53.2166 312.5029 0001039  78.6494 281.4615 15.08845156 59316,6917.865,95.437,540.448,539.011,0.0
53390.0,STARLINK-4517,PAYLOAD,2023-08-29 15:56:39,15.0885147,0.0001147,53.217,307.7462,83.4049,276.7074,0.00017827,2.551e-05,0.0,0 STARLINK-4517,1 53390U 22097C   23241.66434271  .00002551  00000-0  17827-3 0  9996,2 53390  53.2170 307.7462 0001147  83.4049 276.7074 15.08851470 58678,6917.845,95.437,540.504,538.917,0.0
53390.0,STARLINK-4517,PAYLOAD,2023-08-30 15:47:26,15.08843466,0.000113,53.2166,303.285,86.2842,273.828,8.4548e-05,1.058e-05,0.0,0 STARLINK-4517,1 53390U 22097C   23242.65794696  .00001058  00000-0  84548-4 0  9992,2 53390  53.2166 303.2850 0001130  86.2842 273.8280 15.08843466 58829,6917.87,95.437,540.517,538.953,0.0
53390.0,STARLINK-4517,PAYLOAD,2023-08-31 15:38:13,15.08841008,0.000118,53.2167,298.824,87.038,273.0747,3.6083e-05,2.86e-06,0.0,0 STARLINK-4517,1 53390U 22097C   23243.65154830  .00000286  00000-0  36083-4 0  9996,2 53390  53.2167 298.8240 0001180  87.0380 273.0747 15.08841008 58979,6917.877,95.437,540.559,538.926,0.0
53390.0,STARLINK-4517,PAYLOAD,2023-09-01 13:53:37,15.08841912,0.0001314,53.2155,294.662,86.6026,273.5116,0.00018116,2.597e-05,0.0,0 STARLINK-4517,1 53390U 22097C   23244.57890939  .00002597  00000-0  18116-3 0  9998,2 53390  53.2155 294.6620 0001314  86.6026 273.5116 15.08841912 59917,6917.875,95.437,540.649,538.831,0.0
53390.0,STARLINK-4517,PAYLOAD,2023-09-01 20:15:10,15.08842684,0.000129,53.216,293.4726,89.696,270.418,7.9997e-05,9.86e-06,0.0,0 STARLINK-4517,1 53390U 22097C   23244.84386828  .00000986  00000-0  79997-4 0  9990,2 53390  53.2160 293.4726 0001290  89.6960 270.4180 15.08842684 59958,6917.872,95.437,540.63,538.845,0.0
53390.0,STARLINK-4517,PAYLOAD,2023-09-02 12:09:01,15.08840088,0.0001396,53.2153,290.4986,85.9964,274.1187,9.1517e-05,1.169e-05,0.0,0 STARLINK-4517,1 53390U 22097C   23245.50626983  .00001169  00000-0  91517-4 0  9999,2 53390  53.2153 290.4986 0001396  85.9964 274.1187 15.08840088 60052,6917.88,95.438,540.711,538.779,0.0
53390.0,STARLINK-4517,PAYLOAD,2023-09-02 20:05:57,15.08836372,0.0001446,53.2152,289.0117,85.6517,274.464,2.8396e-05,1.64e-06,0.0,0 STARLINK-4517,1 53390U 22097C   23245.83747240  .00000164  00000-0  28396-4 0  9994,2 53390  53.2152 289.0117 0001446  85.6517 274.4640 15.08836372 60102,6917.891,95.438,540.757,538.756,0.0
53390.0,STARLINK-4517,PAYLOAD,2023-09-03 02:27:30,15.08835542,0.0001112,53.2153,287.8221,87.5359,272.5761,2.2632e-06,-2.52e-06,0.0,0 STARLINK-4517,1 53390U 22097C   23246.10243180 -.00000252  00000-0  22632-5 0  9996,2 53390  53.2153 287.8221 0001112  87.5359 272.5761 15.08835542 59345,6917.894,95.438,540.528,538.99,0.0
53390.0,STARLINK-4517,PAYLOAD,2023-09-03 08:49:02,15.08844251,0.0001306,53.2153,286.6322,87.1198,272.9944,7.3493e-05,8.82e-06,0.0,0 STARLINK-4517,1 53390U 22097C   23246.36738812  .00000882  00000-0  73493-4 0  9993,2 53390  53.2153 286.6322 0001306  87.1198 272.9944 15.08844251 60184,6917.867,95.437,540.636,538.829,0.0
53390.0,STARLINK-4517,PAYLOAD,2023-09-03 15:10:34,15.08849529,0.0001297,53.2154,285.4426,86.5732,273.5409,0.00015315,2.151e-05,0.0,0 STARLINK-4517,1 53390U 22097C   23246.63234499  .00002151  00000-0  15315-3 0  9994,2 53390  53.2154 285.4426 0001297  86.5732 273.5409 15.08849529 59424,6917.851,95.437,540.614,538.819,0.0
53390.0,STARLINK-4517,PAYLOAD,2023-09-04 02:18:17,15.08831038,0.0001462,53.2161,283.3605,88.1173,271.9986,-6.9551e-05,-1.394e-05,0.0,0 STARLINK-4517,1 53390U 22097C   23247.09603681 -.00001394  00000-0 -69551-4 0  9990,2 53390  53.2161 283.3605 0001462  88.1173 271.9986 15.08831038 59494,6917.908,95.438,540.784,538.761,0.0
53390.0,STARLINK-4517,PAYLOAD,2023-09-04 11:50:36,15.08837275,0.0001306,53.2156,281.5765,91.2152,268.899,-9.1003e-06,-4.33e-06,0.0,0 STARLINK-4517,1 53390U 22097C   23247.49347504 -.00000433  00000-0 -91003-5 0  9994,2 53390  53.2156 281.5765 0001306  91.2152 268.8990 15.08837275 60350,6917.889,95.438,540.657,538.85,0.0
53390.0,STARLINK-4517,PAYLOAD,2023-09-05 02:09:04,15.08838789,0.0001331,53.2155,278.9,90.8319,269.2825,0.00019805,2.865e-05,0.0,0 STARLINK-4517,1 53390U 22097C   23248.08963787  .00002865  00000-0  19805-3 0  9994,2 53390  53.2155 278.9000 0001331  90.8319 269.2825 15.08838789 59642,6917.884,95.438,540.67,538.828,0.0
53390.0,STARLINK-4517,PAYLOAD,2023-09-06 01:59:51,15.08842145,0.0001358,53.2151,274.4394,90.9844,269.1304,0.00028519,4.254e-05,0.0,0 STARLINK-4517,1 53390U 22097C   23249.08323876  .00004254  00000-0  28519-3 0  9990,2 53390  53.2151 274.4394 0001358  90.9844 269.1304 15.08842145 60596,6917.874,95.437,540.678,538.799,0.0
